[{"OBJECT_NAME":"NOAA 18","OBJECT_ID":"2005-018A","EPOCH":"2026-04-03T05:48:57.461472","MEAN_MOTION":14.13716143,"ECCENTRICITY":0.0014271,"INCLINATION":98.8125,"RA_OF_ASC_NODE":174.0019,"ARG_OF_PERICENTER":8.6692,"MEAN_ANOMALY":351.4725,"EPHEMERIS_TYPE":0,"CLASSIFICATION_TYPE":"U","NORAD_CAT_ID":28654,"ELEMENT_SET_NO":999,"REV_AT_EPOCH":7572,"BSTAR":7.6066657e-5,"MEAN_MOTION_DOT":1.0e-6,"MEAN_MOTION_DDOT":0},{"OBJECT_NAME":"NOAA 19","OBJECT_ID":"2009-005A","EPOCH":"2026-04-03T05:28:10.102080","MEAN_MOTION":14.1346183,"ECCENTRICITY":0.00128897,"INCLINATION":98.9563,"RA_OF_ASC_NODE":164.0348,"ARG_OF_PERICENTER":239.8643,"MEAN_ANOMALY":120.1252,"EPHEMERIS_TYPE":0,"CLASSIFICATION_TYPE":"U","NORAD_CAT_ID":33591,"ELEMENT_SET_NO":999,"REV_AT_EPOCH":88389,"BSTAR":7.112487e-5,"MEAN_MOTION_DOT":8.9e-7,"MEAN_MOTION_DDOT":0},{"OBJECT_NAME":"SUOMI NPP","OBJECT_ID":"2011-061A","EPOCH":"2026-04-03T06:32:18.382272","MEAN_MOTION":14.19500493,"ECCENTRICITY":0.00019593,"INCLINATION":98.7902,"RA_OF_ASC_NODE":34.6834,"ARG_OF_PERICENTER":146.8232,"MEAN_ANOMALY":213.3067,"EPHEMERIS_TYPE":0,"CLASSIFICATION_TYPE":"U","NORAD_CAT_ID":37849,"ELEMENT_SET_NO":999,"REV_AT_EPOCH":74781,"BSTAR":8.936571e-5,"MEAN_MOTION_DOT":1.44e-6,"MEAN_MOTION_DDOT":0},{"OBJECT_NAME":"NOAA 20 (JPSS-1)","OBJECT_ID":"2017-073A","EPOCH":"2026-04-03T06:52:50.765088","MEAN_MOTION":14.19542841,"ECCENTRICITY":0.00020185,"INCLINATION":98.7722,"RA_OF_ASC_NODE":33.4336,"ARG_OF_PERICENTER":104.3779,"MEAN_ANOMALY":255.7621,"EPHEMERIS_TYPE":0,"CLASSIFICATION_TYPE":"U","NORAD_CAT_ID":43013,"ELEMENT_SET_NO":999,"REV_AT_EPOCH":43384,"BSTAR":9.2881726e-5,"MEAN_MOTION_DOT":1.52e-6,"MEAN_MOTION_DDOT":0}]
