NOAA 18                 
1 28654U 05018A   26093.24233173  .00000100  00000+0  76067-4 0  9994
2 28654  98.8125 174.0019 0014271   8.6692 351.4725 14.13716143 75727
NOAA 19                 
1 33591U 09005A   26093.22789470  .00000089  00000+0  71125-4 0  9990
2 33591  98.9563 164.0348 0012889 239.8643 120.1252 14.13461830883892
SUOMI NPP               
1 37849U 11061A   26093.27243498  .00000144  00000+0  89366-4 0  9993
2 37849  98.7902  34.6834 0001959 146.8232 213.3067 14.19500493747811
NOAA 20 (JPSS-1)        
1 43013U 17073A   26093.28669867  .00000152  00000+0  92882-4 0  9991
2 43013  98.7722  33.4336 0002018 104.3779 255.7621 14.19542841433841
